NORAD_CAT_ID,OBJECT_NAME,OBJECT_TYPE,EPOCH,MEAN_MOTION,ECCENTRICITY,INCLINATION,RA_OF_ASC_NODE,ARG_OF_PERICENTER,MEAN_ANOMALY,BSTAR,MEAN_MOTION_DOT,MEAN_MOTION_DDOT,TLE_LINE0,TLE_LINE1,TLE_LINE2,SEMIMAJOR_AXIS,PERIOD,APOGEE,PERIGEE,DECAYED
53851.0,STARLINK-4755,PAYLOAD,2023-08-26 20:16:05,15.08834845,0.0001208,53.2185,130.1749,83.2626,276.8504,-0.00032812,-5.505e-05,0.0,0 STARLINK-4755,1 53851U 22114AK  23238.84450915 -.00005505  00000-0 -32812-3 0  9992,2 53851  53.2185 130.1749 0001208  83.2626 276.8504 15.08834845 53209,6917.896,95.438,540.597,538.925,0.0
53851.0,STARLINK-4755,PAYLOAD,2023-08-27 02:37:38,15.08830697,0.0001334,53.2167,128.9833,118.9286,241.184,-0.00030121,-5.077e-05,0.0,0 STARLINK-4755,1 53851U 22114AK  23239.10947034 -.00005077  00000-0 -30121-3 0  9990,2 53851  53.2167 128.9833 0001334 118.9286 241.1840 15.08830697 52709,6917.909,95.438,540.697,538.851,0.0
53851.0,STARLINK-4755,PAYLOAD,2023-08-27 20:06:53,15.08833733,0.0001428,53.217,125.7126,110.8617,249.2528,-0.00010832,-2.011e-05,0.0,0 STARLINK-4755,1 53851U 22114AK  23239.83811413 -.00002011  00000-0 -10832-3 0  9993,2 53851  53.2170 125.7126 0001428 110.8617 249.2528 15.08833733 53354,6917.9,95.438,540.752,538.777,0.0
53851.0,STARLINK-4755,PAYLOAD,2023-08-28 00:53:02,15.08839177,0.0001433,53.2167,124.8215,108.9463,251.1685,0.00011573,1.554e-05,0.0,0 STARLINK-4755,1 53851U 22114AK  23240.03683430  .00001554  00000-0  11573-3 0  9995,2 53851  53.2167 124.8215 0001433 108.9463 251.1685 15.08839177 52849,6917.883,95.438,540.739,538.757,0.0
53851.0,STARLINK-4755,PAYLOAD,2023-08-28 21:33:04,15.08834864,0.0001461,53.2168,120.957,103.264,256.8515,0.00031735,4.766e-05,0.0,0 STARLINK-4755,1 53851U 22114AK  23240.89796383  .00004766  00000-0  31735-3 0  9991,2 53851  53.2168 120.9570 0001461 103.2640 256.8515 15.08834864 53514,6917.896,95.438,540.772,538.75,0.0
53851.0,STARLINK-4755,PAYLOAD,2023-08-29 00:43:50,15.08840041,0.000145,53.2171,120.3626,101.2344,258.8811,0.00033872,5.107e-05,0.0,0 STARLINK-4755,1 53851U 22114AK  23241.03044255  .00005107  00000-0  33872-3 0  9996,2 53851  53.2171 120.3626 0001450 101.2344 258.8811 15.08840041 52997,6917.88,95.438,540.748,538.742,0.0
53851.0,STARLINK-4755,PAYLOAD,2023-08-29 19:48:28,15.08835903,0.000149,53.2174,116.7942,101.876,258.2399,5.6375e-05,6.09e-06,0.0,0 STARLINK-4755,1 53851U 22114AK  23241.82532517  .00000609  00000-0  56375-4 0  9992,2 53851  53.2174 116.7942 0001490 101.8760 258.2399 15.08835903 53652,6917.893,95.438,540.789,538.727,0.0
53851.0,STARLINK-4755,PAYLOAD,2023-08-30 00:34:37,15.08831651,0.0001539,53.2174,115.9018,96.8483,263.2685,0.00032113,4.825e-05,0.0,0 STARLINK-4755,1 53851U 22114AK  23242.02404929  .00004825  00000-0  32113-3 0  9997,2 53851  53.2174 115.9018 0001539  96.8483 263.2685 15.08831651 53140,6917.906,95.438,540.836,538.706,0.0
53851.0,STARLINK-4755,PAYLOAD,2023-08-30 08:31:33,15.08840553,0.0001331,53.2168,114.4159,95.6114,264.503,0.00013836,1.915e-05,0.0,0 STARLINK-4755,1 53851U 22114AK  23242.35524471  .00001915  00000-0  13836-3 0  9996,2 53851  53.2168 114.4159 0001331  95.6114 264.5030 15.08840553 53735,6917.879,95.438,540.664,538.823,0.0
53851.0,STARLINK-4755,PAYLOAD,2023-08-31 00:25:24,15.08845348,0.0001275,53.2164,111.4425,91.549,268.5648,0.00018944,2.729e-05,0.0,0 STARLINK-4755,1 53851U 22114AK  23243.01764291  .00002729  00000-0  18944-3 0  9995,2 53851  53.2164 111.4425 0001275  91.5490 268.5648 15.08845348 53830,6917.864,95.437,540.611,538.847,0.0
53851.0,STARLINK-4755,PAYLOAD,2023-09-01 00:16:11,15.08833304,0.0001047,53.2155,106.9848,157.0221,203.0818,0.00022132,3.236e-05,0.0,0 STARLINK-4755,1 53851U 22114AK  23244.01124627  .00003236  00000-0  22132-3 0  9997,2 53851  53.2155 106.9848 0001047 157.0221 203.0818 15.08833304 53444,6917.901,95.438,540.49,539.042,0.0
53851.0,STARLINK-4755,PAYLOAD,2023-09-01 08:13:09,15.08808654,0.0002666,53.2026,105.501,86.8696,273.2601,0.0011306,0.00017736,0.0,0 STARLINK-4755,1 53851U 22114AK  23244.34247589  .00017736  00000-0  11306-2 0  9996,2 53851  53.2026 105.5010 0002666  86.8696 273.2601 15.08808654 53494,6917.976,95.44,541.686,537.997,0.0
53851.0,STARLINK-4755,PAYLOAD,2023-09-01 20:56:12,15.08850767,0.0001131,53.2153,103.1161,78.3861,281.7258,1.7398e-05,-1.1e-07,0.0,0 STARLINK-4755,1 53851U 22114AK  23244.87236237 -.00000011  00000-0  17398-4 0  9990,2 53851  53.2153 103.1161 0001131  78.3861 281.7258 15.08850767 53575,6917.847,95.437,540.495,538.93,0.0
53851.0,STARLINK-4755,PAYLOAD,2023-09-02 08:03:54,15.08843256,0.0001558,53.2139,101.0348,75.5974,284.519,0.0002084,3.031e-05,0.0,0 STARLINK-4755,1 53851U 22114AK  23245.33604886  .00003031  00000-0  20840-3 0  9990,2 53851  53.2139 101.0348 0001558  75.5974 284.5190 15.08843256 53649,6917.87,95.437,540.813,538.658,0.0
53851.0,STARLINK-4755,PAYLOAD,2023-09-02 20:46:59,15.08848674,0.0001306,53.2157,98.6537,93.4402,266.674,0.00024191,3.565e-05,0.0,0 STARLINK-4755,1 53851U 22114AK  23245.86596593  .00003565  00000-0  24191-3 0  9998,2 53851  53.2157  98.6537 0001306  93.4402 266.6740 15.08848674 54266,6917.854,95.437,540.622,538.815,0.0
53851.0,STARLINK-4755,PAYLOAD,2023-09-03 01:33:08,15.08851484,0.0001432,53.2149,97.7617,91.6747,268.4409,0.00030977,4.647e-05,0.0,0 STARLINK-4755,1 53851U 22114AK  23246.06468481  .00004647  00000-0  30977-3 0  9996,2 53851  53.2149  97.7617 0001432  91.6747 268.4409 15.08851484 54296,6917.845,95.437,540.701,538.72,0.0
53851.0,STARLINK-4755,PAYLOAD,2023-09-03 19:02:23,15.08839939,0.0001564,53.2156,94.4906,93.0746,267.0425,2.4036e-05,9.5e-07,0.0,0 STARLINK-4755,1 53851U 22114AK  23246.79332900  .00000095  00000-0  24036-4 0  9995,2 53851  53.2156  94.4906 0001564  93.0746 267.0425 15.08839939 53866,6917.881,95.438,540.828,538.664,0.0
53851.0,STARLINK-4755,PAYLOAD,2023-09-03 23:48:32,15.08844804,0.0001525,53.2161,93.5982,93.6751,266.4416,5.3306e-05,5.61e-06,0.0,0 STARLINK-4755,1 53851U 22114AK  23246.99204569  .00000561  00000-0  53306-4 0  9996,2 53851  53.2161  93.5982 0001525  93.6751 266.4416 15.08844804 54439,6917.866,95.437,540.786,538.676,0.0
53851.0,STARLINK-4755,PAYLOAD,2023-09-04 20:28:34,15.08836582,0.0001453,53.2172,89.7332,92.106,268.0099,5.5104e-05,5.89e-06,0.0,0 STARLINK-4755,1 53851U 22114AK  23247.85317340  .00000589  00000-0  55104-4 0  9992,2 53851  53.2172  89.7332 0001453  92.1060 268.0099 15.08836582 54028,6917.891,95.438,540.761,538.751,0.0
53851.0,STARLINK-4755,PAYLOAD,2023-09-05 12:22:25,15.08844907,0.0001455,53.2169,86.7591,86.1162,273.9997,2.6766e-05,1.38e-06,0.0,0 STARLINK-4755,1 53851U 22114AK  23248.51556854  .00000138  00000-0  26766-4 0  9993,2 53851  53.2169  86.7591 0001455  86.1162 273.9997 15.08844907 54129,6917.865,95.437,540.737,538.724,0.0
53851.0,STARLINK-4755,PAYLOAD,2023-09-05 13:57:48,15.08839533,0.0001426,53.2169,86.4619,88.4277,271.6878,0.00013947,1.932e-05,0.0,0 STARLINK-4755,1 53851U 22114AK  23248.58181072  .00001932  00000-0  13947-3 0  9995,2 53851  53.2169  86.4619 0001426  88.4277 271.6878 15.08839533 54679,6917.882,95.438,540.733,538.76,0.0
53851.0,STARLINK-4755,PAYLOAD,2023-09-06 05:51:39,15.08843601,0.0001333,53.2163,83.4881,92.802,267.3125,0.00011179,1.492e-05,0.0,0 STARLINK-4755,1 53851U 22114AK  23249.24420904  .00001492  00000-0  11179-3 0  9995,2 53851  53.2163  83.4881 0001333  92.8020 267.3125 15.08843601 54772,6917.869,95.437,540.657,538.812,0.0
53851.0,STARLINK-4755,PAYLOAD,2023-09-06 23:20:54,15.08842884,0.0001378,53.2155,80.2157,83.0625,277.0524,0.00013679,1.89e-05,0.0,0 STARLINK-4755,1 53851U 22114AK  23249.97285000  .00001890  00000-0  13679-3 0  9990,2 53851  53.2155  80.2157 0001378  83.0625 277.0524 15.08842884 54342,6917.872,95.437,540.69,538.783,0.0
53851.0,STARLINK-4755,PAYLOAD,2023-09-07 05:42:27,15.08839221,0.0001509,53.2171,79.0258,80.525,279.5912,6.9759e-05,8.22e-06,0.0,0 STARLINK-4755,1 53851U 22114AK  23250.23781372  .00000822  00000-0  69759-4 0  9999,2 53851  53.2171  79.0258 0001509  80.5250 279.5912 15.08839221 54923,6917.883,95.438,540.792,538.704,0.0
53851.0,STARLINK-4755,PAYLOAD,2023-09-08 00:47:04,15.08840092,0.0001512,53.2155,75.4575,80.8995,279.2168,-4.6229e-06,-3.62e-06,0.0,0 STARLINK-4755,1 53851U 22114AK  23251.03269503 -.00000362  00000-0 -46229-5 0  9994,2 53851  53.2155  75.4575 0001512  80.8995 279.2168 15.08840092 55042,6917.88,95.438,540.791,538.699,0.0
53851.0,STARLINK-4755,PAYLOAD,2023-09-08 18:16:18,15.0883504,0.0001032,53.2165,72.1876,100.9554,259.1554,0.00028647,4.274e-05,0.0,0 STARLINK-4755,1 53851U 22114AK  23251.76132837  .00004274  00000-0  28647-3 0  9999,2 53851  53.2165  72.1876 0001032 100.9554 259.1554 15.08835040 54618,6917.896,95.438,540.474,539.047,0.0
53851.0,STARLINK-4755,PAYLOAD,2023-09-08 21:27:04,15.08854938,0.0001416,53.217,71.5925,83.4529,276.6624,9.0919e-05,1.16e-05,0.0,0 STARLINK-4755,1 53851U 22114AK  23251.89380405  .00001160  00000-0  90919-4 0  9992,2 53851  53.2170  71.5925 0001416  83.4529 276.6624 15.08854938 55176,6917.835,95.437,540.679,538.72,0.0
53851.0,STARLINK-4755,PAYLOAD,2023-09-09 00:37:50,15.08853246,0.00012,53.2163,70.9973,86.3562,273.7568,0.00022676,3.324e-05,0.0,0 STARLINK-4755,1 53851U 22114AK  23252.02628401  .00003324  00000-0  22676-3 0  9997,2 53851  53.2163  70.9973 0001200  86.3562 273.7568 15.08853246 54652,6917.84,95.437,540.535,538.875,0.0
53851.0,STARLINK-4755,PAYLOAD,2023-09-09 05:24:01,15.08830638,8.29e-05,53.2175,70.1058,84.1945,275.9142,-2.8784e-05,-7.46e-06,0.0,0 STARLINK-4755,1 53851U 22114AK  23252.22501389 -.00000746  00000-0 -28784-4 0  9998,2 53851  53.2175  70.1058 0000829  84.1945 275.9142 15.08830638 54683,6917.909,95.438,540.347,539.201,0.0
53851.0,STARLINK-4755,PAYLOAD,2023-09-09 11:45:34,15.08830124,0.0001119,53.2163,68.9163,88.6064,271.5056,-1.7406e-05,-5.65e-06,0.0,0 STARLINK-4755,1 53851U 22114AK  23252.48997768 -.00000565  00000-0 -17406-4 0  9994,2 53851  53.2163  68.9163 0001119  88.6064 271.5056 15.08830124 55267,6917.911,95.438,540.55,539.001,0.0
